[{"OBJECT_NAME":"NIGERIASAT-X","OBJECT_ID":"2011-044C","EPOCH":"2026-03-09T22:53:29.882112","MEAN_MOTION":14.60784169,"ECCENTRICITY":0.00109862,"INCLINATION":97.8486,"RA_OF_ASC_NODE":58.2104,"ARG_OF_PERICENTER":290.128,"MEAN_ANOMALY":69.8739,"EPHEMERIS_TYPE":0,"CLASSIFICATION_TYPE":"U","NORAD_CAT_ID":37790,"ELEMENT_SET_NO":999,"REV_AT_EPOCH":77568,"BSTAR":0.00013273197,"MEAN_MOTION_DOT":6.05e-6,"MEAN_MOTION_DDOT":0},{"OBJECT_NAME":"COSMOS 2251 DEB","OBJECT_ID":"1993-036AHG","EPOCH":"2026-03-08T10:46:53.014080","MEAN_MOTION":14.81929018,"ECCENTRICITY":0.00877235,"INCLINATION":73.9479,"RA_OF_ASC_NODE":235.9974,"ARG_OF_PERICENTER":61.9882,"MEAN_ANOMALY":299.0134,"EPHEMERIS_TYPE":0,"CLASSIFICATION_TYPE":"U","NORAD_CAT_ID":35043,"ELEMENT_SET_NO":999,"REV_AT_EPOCH":68686,"BSTAR":0.0057795156,"MEAN_MOTION_DOT":0.00049252,"MEAN_MOTION_DDOT":0}]
